<?xml version="1.0" encoding="UTF-8"?>
<gpx version="1.1" creator="RaceMind track generator">
  <trk><name>RIM Park Loop (medium) seed=8</name><trkseg>
    <trkpt lat="43.5178695" lon="-80.5034026"></trkpt>
    <trkpt lat="43.5179329" lon="-80.503491"></trkpt>
    <trkpt lat="43.5179872" lon="-80.5035904"></trkpt>
    <trkpt lat="43.5180372" lon="-80.503694"></trkpt>
    <trkpt lat="43.518084" lon="-80.5038005"></trkpt>
    <trkpt lat="43.5181289" lon="-80.5039084"></trkpt>
    <trkpt lat="43.5181725" lon="-80.5040174"></trkpt>
    <trkpt lat="43.5182151" lon="-80.5041271"></trkpt>
    <trkpt lat="43.5182571" lon="-80.5042373"></trkpt>
    <trkpt lat="43.5182987" lon="-80.5043477"></trkpt>
    <trkpt lat="43.5183402" lon="-80.5044583"></trkpt>
    <trkpt lat="43.5183816" lon="-80.5045689"></trkpt>
    <trkpt lat="43.5184232" lon="-80.5046793"></trkpt>
    <trkpt lat="43.5184652" lon="-80.5047895"></trkpt>
    <trkpt lat="43.5185079" lon="-80.5048991"></trkpt>
    <trkpt lat="43.5185516" lon="-80.505008"></trkpt>
    <trkpt lat="43.5185967" lon="-80.5051159"></trkpt>
    <trkpt lat="43.5186436" lon="-80.5052222"></trkpt>
    <trkpt lat="43.5186934" lon="-80.505326"></trkpt>
    <trkpt lat="43.518748" lon="-80.5054251"></trkpt>
    <trkpt lat="43.5188111" lon="-80.5055137"></trkpt>
    <trkpt lat="43.5188846" lon="-80.5055854"></trkpt>
    <trkpt lat="43.5189657" lon="-80.5056399"></trkpt>
    <trkpt lat="43.5190512" lon="-80.5056795"></trkpt>
    <trkpt lat="43.519139" lon="-80.5057076"></trkpt>
    <trkpt lat="43.5192281" lon="-80.5057283"></trkpt>
    <trkpt lat="43.5193174" lon="-80.5057463"></trkpt>
    <trkpt lat="43.5194056" lon="-80.5057718"></trkpt>
    <trkpt lat="43.5194719" lon="-80.5058463"></trkpt>
    <trkpt lat="43.5194453" lon="-80.5059618"></trkpt>
    <trkpt lat="43.519385" lon="-80.5060543"></trkpt>
    <trkpt lat="43.5193171" lon="-80.5061361"></trkpt>
    <trkpt lat="43.519246" lon="-80.5062129"></trkpt>
    <trkpt lat="43.519173" lon="-80.5062861"></trkpt>
    <trkpt lat="43.5190989" lon="-80.5063572"></trkpt>
    <trkpt lat="43.5190241" lon="-80.5064266"></trkpt>
    <trkpt lat="43.5189486" lon="-80.5064949"></trkpt>
    <trkpt lat="43.5188727" lon="-80.5065623"></trkpt>
    <trkpt lat="43.5187965" lon="-80.5066291"></trkpt>
    <trkpt lat="43.5187202" lon="-80.5066955"></trkpt>
    <trkpt lat="43.5186437" lon="-80.5067616"></trkpt>
    <trkpt lat="43.5185673" lon="-80.5068278"></trkpt>
    <trkpt lat="43.518491" lon="-80.5068942"></trkpt>
    <trkpt lat="43.5184149" lon="-80.5069612"></trkpt>
    <trkpt lat="43.5183393" lon="-80.5070292"></trkpt>
    <trkpt lat="43.5182647" lon="-80.5070992"></trkpt>
    <trkpt lat="43.518192" lon="-80.5071729"></trkpt>
    <trkpt lat="43.5181245" lon="-80.5072555"></trkpt>
    <trkpt lat="43.5180713" lon="-80.5073553"></trkpt>
    <trkpt lat="43.5180705" lon="-80.5074749"></trkpt>
    <trkpt lat="43.5180549" lon="-80.507564"></trkpt>
    <trkpt lat="43.5179663" lon="-80.5075856"></trkpt>
    <trkpt lat="43.5178763" lon="-80.5075783"></trkpt>
    <trkpt lat="43.5177872" lon="-80.5075587"></trkpt>
    <trkpt lat="43.5176986" lon="-80.5075349"></trkpt>
    <trkpt lat="43.5176102" lon="-80.5075097"></trkpt>
    <trkpt lat="43.5175219" lon="-80.5074841"></trkpt>
    <trkpt lat="43.5174336" lon="-80.5074585"></trkpt>
    <trkpt lat="43.5173453" lon="-80.5074327"></trkpt>
    <trkpt lat="43.517257" lon="-80.5074066"></trkpt>
    <trkpt lat="43.5171688" lon="-80.5073802"></trkpt>
    <trkpt lat="43.5170806" lon="-80.5073536"></trkpt>
    <trkpt lat="43.5169925" lon="-80.5073266"></trkpt>
    <trkpt lat="43.5169045" lon="-80.5072991"></trkpt>
    <trkpt lat="43.5168166" lon="-80.5072711"></trkpt>
    <trkpt lat="43.5167287" lon="-80.5072427"></trkpt>
    <trkpt lat="43.5166409" lon="-80.5072136"></trkpt>
    <trkpt lat="43.5165533" lon="-80.5071837"></trkpt>
    <trkpt lat="43.5164659" lon="-80.507153"></trkpt>
    <trkpt lat="43.5163786" lon="-80.5071211"></trkpt>
    <trkpt lat="43.5162916" lon="-80.5070878"></trkpt>
    <trkpt lat="43.5162051" lon="-80.5070525"></trkpt>
    <trkpt lat="43.5161192" lon="-80.5070143"></trkpt>
    <trkpt lat="43.5160345" lon="-80.5069713"></trkpt>
    <trkpt lat="43.5159504" lon="-80.5069261"></trkpt>
    <trkpt lat="43.5158666" lon="-80.5068798"></trkpt>
    <trkpt lat="43.5157933" lon="-80.5068097"></trkpt>
    <trkpt lat="43.5157547" lon="-80.5066977"></trkpt>
    <trkpt lat="43.5157237" lon="-80.5065808"></trkpt>
    <trkpt lat="43.5156911" lon="-80.5064648"></trkpt>
    <trkpt lat="43.5156567" lon="-80.5063497"></trkpt>
    <trkpt lat="43.5156219" lon="-80.5062348"></trkpt>
    <trkpt lat="43.5155872" lon="-80.5061199"></trkpt>
    <trkpt lat="43.5155531" lon="-80.5060047"></trkpt>
    <trkpt lat="43.5155195" lon="-80.5058892"></trkpt>
    <trkpt lat="43.5154868" lon="-80.5057732"></trkpt>
    <trkpt lat="43.5154549" lon="-80.5056567"></trkpt>
    <trkpt lat="43.5154244" lon="-80.5055396"></trkpt>
    <trkpt lat="43.5153953" lon="-80.5054218"></trkpt>
    <trkpt lat="43.5153679" lon="-80.5053032"></trkpt>
    <trkpt lat="43.5153424" lon="-80.5051838"></trkpt>
    <trkpt lat="43.5153194" lon="-80.5050634"></trkpt>
    <trkpt lat="43.5153" lon="-80.5049419"></trkpt>
    <trkpt lat="43.5152849" lon="-80.5048192"></trkpt>
    <trkpt lat="43.5152754" lon="-80.5046955"></trkpt>
    <trkpt lat="43.5152759" lon="-80.5045711"></trkpt>
    <trkpt lat="43.5152911" lon="-80.5044488"></trkpt>
    <trkpt lat="43.5153291" lon="-80.5043367"></trkpt>
    <trkpt lat="43.5153877" lon="-80.5042425"></trkpt>
    <trkpt lat="43.5154589" lon="-80.5041664"></trkpt>
    <trkpt lat="43.5155372" lon="-80.5041048"></trkpt>
    <trkpt lat="43.5156196" lon="-80.5040539"></trkpt>
    <trkpt lat="43.5157046" lon="-80.5040121"></trkpt>
    <trkpt lat="43.515791" lon="-80.5039762"></trkpt>
    <trkpt lat="43.5158784" lon="-80.5039453"></trkpt>
    <trkpt lat="43.5159665" lon="-80.5039181"></trkpt>
    <trkpt lat="43.516055" lon="-80.5038936"></trkpt>
    <trkpt lat="43.5161437" lon="-80.5038712"></trkpt>
    <trkpt lat="43.5162326" lon="-80.5038498"></trkpt>
    <trkpt lat="43.5163216" lon="-80.5038284"></trkpt>
    <trkpt lat="43.5164103" lon="-80.5038055"></trkpt>
    <trkpt lat="43.5164993" lon="-80.5037851"></trkpt>
    <trkpt lat="43.5165893" lon="-80.5037761"></trkpt>
    <trkpt lat="43.5166795" lon="-80.5037779"></trkpt>
    <trkpt lat="43.5167695" lon="-80.503788"></trkpt>
    <trkpt lat="43.516859" lon="-80.5038038"></trkpt>
    <trkpt lat="43.5169482" lon="-80.5038225"></trkpt>
    <trkpt lat="43.5170375" lon="-80.5038409"></trkpt>
    <trkpt lat="43.5171271" lon="-80.503855"></trkpt>
    <trkpt lat="43.5172173" lon="-80.5038597"></trkpt>
    <trkpt lat="43.517307" lon="-80.5038472"></trkpt>
    <trkpt lat="43.5173899" lon="-80.5038001"></trkpt>
    <trkpt lat="43.5174588" lon="-80.5037202"></trkpt>
    <trkpt lat="43.5175179" lon="-80.5036261"></trkpt>
    <trkpt lat="43.5175733" lon="-80.5035279"></trkpt>
    <trkpt lat="43.5176317" lon="-80.503433"></trkpt>
    <trkpt lat="43.5177029" lon="-80.5033577"></trkpt>
    <trkpt lat="43.5177905" lon="-80.5033445"></trkpt>
    <trkpt lat="43.5178695" lon="-80.5034026"></trkpt>
  </trkseg></trk>
</gpx>