<?xml version="1.0" encoding="UTF-8"?>
<gpx version="1.1" creator="RaceMind track generator">
  <trk><name>RIM Park Loop (flowing) seed=9</name><trkseg>
    <trkpt lat="43.5189965" lon="-80.5035618"></trkpt>
    <trkpt lat="43.5190649" lon="-80.5036424"></trkpt>
    <trkpt lat="43.5191284" lon="-80.5037303"></trkpt>
    <trkpt lat="43.5191877" lon="-80.5038237"></trkpt>
    <trkpt lat="43.5192428" lon="-80.5039218"></trkpt>
    <trkpt lat="43.5192944" lon="-80.5040235"></trkpt>
    <trkpt lat="43.5193429" lon="-80.504128"></trkpt>
    <trkpt lat="43.5193886" lon="-80.5042349"></trkpt>
    <trkpt lat="43.5194317" lon="-80.5043439"></trkpt>
    <trkpt lat="43.5194721" lon="-80.5044548"></trkpt>
    <trkpt lat="43.5195101" lon="-80.5045673"></trkpt>
    <trkpt lat="43.5195454" lon="-80.5046815"></trkpt>
    <trkpt lat="43.5195783" lon="-80.504797"></trkpt>
    <trkpt lat="43.5196084" lon="-80.504914"></trkpt>
    <trkpt lat="43.5196355" lon="-80.5050324"></trkpt>
    <trkpt lat="43.5196593" lon="-80.5051521"></trkpt>
    <trkpt lat="43.5196794" lon="-80.505273"></trkpt>
    <trkpt lat="43.5196955" lon="-80.5053951"></trkpt>
    <trkpt lat="43.5197064" lon="-80.5055183"></trkpt>
    <trkpt lat="43.5197098" lon="-80.5056423"></trkpt>
    <trkpt lat="43.5197044" lon="-80.5057661"></trkpt>
    <trkpt lat="43.5196848" lon="-80.5058871"></trkpt>
    <trkpt lat="43.5196506" lon="-80.5060016"></trkpt>
    <trkpt lat="43.5196039" lon="-80.5061075"></trkpt>
    <trkpt lat="43.5195475" lon="-80.5062042"></trkpt>
    <trkpt lat="43.5194839" lon="-80.506292"></trkpt>
    <trkpt lat="43.5194157" lon="-80.5063729"></trkpt>
    <trkpt lat="43.5193443" lon="-80.5064484"></trkpt>
    <trkpt lat="43.5192707" lon="-80.5065199"></trkpt>
    <trkpt lat="43.5191959" lon="-80.5065889"></trkpt>
    <trkpt lat="43.5191203" lon="-80.5066563"></trkpt>
    <trkpt lat="43.5190445" lon="-80.5067232"></trkpt>
    <trkpt lat="43.5189687" lon="-80.5067903"></trkpt>
    <trkpt lat="43.5188936" lon="-80.5068586"></trkpt>
    <trkpt lat="43.5188193" lon="-80.5069286"></trkpt>
    <trkpt lat="43.5187461" lon="-80.507001"></trkpt>
    <trkpt lat="43.5186746" lon="-80.5070763"></trkpt>
    <trkpt lat="43.5186041" lon="-80.5071536"></trkpt>
    <trkpt lat="43.518534" lon="-80.5072314"></trkpt>
    <trkpt lat="43.518464" lon="-80.5073094"></trkpt>
    <trkpt lat="43.518394" lon="-80.5073875"></trkpt>
    <trkpt lat="43.518324" lon="-80.5074655"></trkpt>
    <trkpt lat="43.5182539" lon="-80.5075434"></trkpt>
    <trkpt lat="43.5181836" lon="-80.5076209"></trkpt>
    <trkpt lat="43.5181131" lon="-80.507698"></trkpt>
    <trkpt lat="43.5180422" lon="-80.5077746"></trkpt>
    <trkpt lat="43.517971" lon="-80.5078505"></trkpt>
    <trkpt lat="43.5178994" lon="-80.5079257"></trkpt>
    <trkpt lat="43.5178273" lon="-80.508"></trkpt>
    <trkpt lat="43.5177547" lon="-80.5080733"></trkpt>
    <trkpt lat="43.5176813" lon="-80.5081453"></trkpt>
    <trkpt lat="43.5176073" lon="-80.5082159"></trkpt>
    <trkpt lat="43.5175324" lon="-80.5082848"></trkpt>
    <trkpt lat="43.5174565" lon="-80.5083515"></trkpt>
    <trkpt lat="43.5173795" lon="-80.5084157"></trkpt>
    <trkpt lat="43.5173012" lon="-80.5084769"></trkpt>
    <trkpt lat="43.5172214" lon="-80.5085342"></trkpt>
    <trkpt lat="43.5171398" lon="-80.5085868"></trkpt>
    <trkpt lat="43.5170561" lon="-80.5086324"></trkpt>
    <trkpt lat="43.5169712" lon="-80.5086736"></trkpt>
    <trkpt lat="43.5168856" lon="-80.5087117"></trkpt>
    <trkpt lat="43.5167991" lon="-80.508746"></trkpt>
    <trkpt lat="43.5167117" lon="-80.5087758"></trkpt>
    <trkpt lat="43.5166234" lon="-80.5088001"></trkpt>
    <trkpt lat="43.5165344" lon="-80.5088179"></trkpt>
    <trkpt lat="43.5164447" lon="-80.5088284"></trkpt>
    <trkpt lat="43.5163547" lon="-80.5088291"></trkpt>
    <trkpt lat="43.516265" lon="-80.5088193"></trkpt>
    <trkpt lat="43.5161765" lon="-80.5087976"></trkpt>
    <trkpt lat="43.5160902" lon="-80.5087626"></trkpt>
    <trkpt lat="43.5160077" lon="-80.5087131"></trkpt>
    <trkpt lat="43.5159302" lon="-80.5086503"></trkpt>
    <trkpt lat="43.5158585" lon="-80.5085754"></trkpt>
    <trkpt lat="43.5157935" lon="-80.5084896"></trkpt>
    <trkpt lat="43.5157335" lon="-80.508397"></trkpt>
    <trkpt lat="43.5156779" lon="-80.5082995"></trkpt>
    <trkpt lat="43.5156256" lon="-80.5081985"></trkpt>
    <trkpt lat="43.5155763" lon="-80.5080947"></trkpt>
    <trkpt lat="43.5155299" lon="-80.5079883"></trkpt>
    <trkpt lat="43.5154861" lon="-80.5078799"></trkpt>
    <trkpt lat="43.5154447" lon="-80.5077697"></trkpt>
    <trkpt lat="43.5154056" lon="-80.5076579"></trkpt>
    <trkpt lat="43.5153688" lon="-80.5075446"></trkpt>
    <trkpt lat="43.5153344" lon="-80.5074299"></trkpt>
    <trkpt lat="43.5153022" lon="-80.507314"></trkpt>
    <trkpt lat="43.5152724" lon="-80.5071969"></trkpt>
    <trkpt lat="43.5152451" lon="-80.5070786"></trkpt>
    <trkpt lat="43.5152202" lon="-80.5069593"></trkpt>
    <trkpt lat="43.5151981" lon="-80.5068391"></trkpt>
    <trkpt lat="43.5151787" lon="-80.5067179"></trkpt>
    <trkpt lat="43.5151623" lon="-80.5065958"></trkpt>
    <trkpt lat="43.5151492" lon="-80.506473"></trkpt>
    <trkpt lat="43.5151394" lon="-80.5063497"></trkpt>
    <trkpt lat="43.5151335" lon="-80.5062258"></trkpt>
    <trkpt lat="43.5151315" lon="-80.5061018"></trkpt>
    <trkpt lat="43.5151339" lon="-80.5059777"></trkpt>
    <trkpt lat="43.5151402" lon="-80.5058539"></trkpt>
    <trkpt lat="43.5151495" lon="-80.5057305"></trkpt>
    <trkpt lat="43.5151614" lon="-80.5056074"></trkpt>
    <trkpt lat="43.5151753" lon="-80.5054848"></trkpt>
    <trkpt lat="43.5151913" lon="-80.5053627"></trkpt>
    <trkpt lat="43.5152091" lon="-80.505241"></trkpt>
    <trkpt lat="43.5152284" lon="-80.5051197"></trkpt>
    <trkpt lat="43.5152489" lon="-80.5049989"></trkpt>
    <trkpt lat="43.5152706" lon="-80.5048784"></trkpt>
    <trkpt lat="43.515294" lon="-80.5047586"></trkpt>
    <trkpt lat="43.5153184" lon="-80.5046391"></trkpt>
    <trkpt lat="43.5153439" lon="-80.5045201"></trkpt>
    <trkpt lat="43.5153705" lon="-80.5044015"></trkpt>
    <trkpt lat="43.5153987" lon="-80.5042836"></trkpt>
    <trkpt lat="43.5154279" lon="-80.5041662"></trkpt>
    <trkpt lat="43.5154582" lon="-80.5040493"></trkpt>
    <trkpt lat="43.5154897" lon="-80.503933"></trkpt>
    <trkpt lat="43.5155229" lon="-80.5038177"></trkpt>
    <trkpt lat="43.5155575" lon="-80.5037031"></trkpt>
    <trkpt lat="43.5155936" lon="-80.5035894"></trkpt>
    <trkpt lat="43.5156314" lon="-80.5034767"></trkpt>
    <trkpt lat="43.5156711" lon="-80.5033653"></trkpt>
    <trkpt lat="43.5157131" lon="-80.5032556"></trkpt>
    <trkpt lat="43.515758" lon="-80.503148"></trkpt>
    <trkpt lat="43.5158063" lon="-80.5030432"></trkpt>
    <trkpt lat="43.5158592" lon="-80.5029428"></trkpt>
    <trkpt lat="43.515918" lon="-80.502849"></trkpt>
    <trkpt lat="43.515985" lon="-80.5027663"></trkpt>
    <trkpt lat="43.5160634" lon="-80.5027063"></trkpt>
    <trkpt lat="43.5161498" lon="-80.5026732"></trkpt>
    <trkpt lat="43.5162395" lon="-80.5026679"></trkpt>
    <trkpt lat="43.5163284" lon="-80.5026867"></trkpt>
    <trkpt lat="43.5164149" lon="-80.5027204"></trkpt>
    <trkpt lat="43.516499" lon="-80.5027647"></trkpt>
    <trkpt lat="43.5165811" lon="-80.5028154"></trkpt>
    <trkpt lat="43.5166619" lon="-80.5028703"></trkpt>
    <trkpt lat="43.5167419" lon="-80.502927"></trkpt>
    <trkpt lat="43.5168218" lon="-80.5029841"></trkpt>
    <trkpt lat="43.5169021" lon="-80.5030402"></trkpt>
    <trkpt lat="43.5169833" lon="-80.503094"></trkpt>
    <trkpt lat="43.5170657" lon="-80.5031438"></trkpt>
    <trkpt lat="43.5171499" lon="-80.5031875"></trkpt>
    <trkpt lat="43.517236" lon="-80.5032239"></trkpt>
    <trkpt lat="43.5173239" lon="-80.5032498"></trkpt>
    <trkpt lat="43.5174131" lon="-80.5032666"></trkpt>
    <trkpt lat="43.5175027" lon="-80.503278"></trkpt>
    <trkpt lat="43.5175926" lon="-80.5032848"></trkpt>
    <trkpt lat="43.5176826" lon="-80.5032885"></trkpt>
    <trkpt lat="43.5177726" lon="-80.5032902"></trkpt>
    <trkpt lat="43.5178626" lon="-80.5032908"></trkpt>
    <trkpt lat="43.5179526" lon="-80.5032909"></trkpt>
    <trkpt lat="43.5180426" lon="-80.5032911"></trkpt>
    <trkpt lat="43.5181326" lon="-80.5032924"></trkpt>
    <trkpt lat="43.5182226" lon="-80.5032953"></trkpt>
    <trkpt lat="43.5183125" lon="-80.5033006"></trkpt>
    <trkpt lat="43.5184023" lon="-80.5033089"></trkpt>
    <trkpt lat="43.5184919" lon="-80.5033213"></trkpt>
    <trkpt lat="43.5185809" lon="-80.5033394"></trkpt>
    <trkpt lat="43.5186691" lon="-80.5033641"></trkpt>
    <trkpt lat="43.5187559" lon="-80.5033967"></trkpt>
    <trkpt lat="43.5188404" lon="-80.5034394"></trkpt>
    <trkpt lat="43.518921" lon="-80.5034945"></trkpt>
    <trkpt lat="43.5189965" lon="-80.5035618"></trkpt>
  </trkseg></trk>
</gpx>