<?xml version="1.0" encoding="UTF-8"?>
<gpx version="1.1" creator="RaceMind track generator">
  <trk><name>RIM Park Loop (tight) seed=7</name><trkseg>
    <trkpt lat="43.5180671" lon="-80.5046113"></trkpt>
    <trkpt lat="43.5181054" lon="-80.5046958"></trkpt>
    <trkpt lat="43.5181352" lon="-80.5047865"></trkpt>
    <trkpt lat="43.518148" lon="-80.5048843"></trkpt>
    <trkpt lat="43.5181423" lon="-80.5049835"></trkpt>
    <trkpt lat="43.5181284" lon="-80.5050814"></trkpt>
    <trkpt lat="43.5181138" lon="-80.505179"></trkpt>
    <trkpt lat="43.5181012" lon="-80.5052772"></trkpt>
    <trkpt lat="43.5180887" lon="-80.5053755"></trkpt>
    <trkpt lat="43.5180741" lon="-80.5054731"></trkpt>
    <trkpt lat="43.5180581" lon="-80.5055704"></trkpt>
    <trkpt lat="43.5180413" lon="-80.5056674"></trkpt>
    <trkpt lat="43.5180237" lon="-80.5057641"></trkpt>
    <trkpt lat="43.5180056" lon="-80.5058606"></trkpt>
    <trkpt lat="43.517987" lon="-80.505957"></trkpt>
    <trkpt lat="43.5179681" lon="-80.5060533"></trkpt>
    <trkpt lat="43.5179489" lon="-80.5061494"></trkpt>
    <trkpt lat="43.5179294" lon="-80.5062455"></trkpt>
    <trkpt lat="43.5179097" lon="-80.5063414"></trkpt>
    <trkpt lat="43.5178898" lon="-80.5064373"></trkpt>
    <trkpt lat="43.5178697" lon="-80.5065331"></trkpt>
    <trkpt lat="43.5178495" lon="-80.5066289"></trkpt>
    <trkpt lat="43.5178294" lon="-80.5067246"></trkpt>
    <trkpt lat="43.5178158" lon="-80.5068225"></trkpt>
    <trkpt lat="43.5178162" lon="-80.506922"></trkpt>
    <trkpt lat="43.5178283" lon="-80.5070203"></trkpt>
    <trkpt lat="43.5178251" lon="-80.5071173"></trkpt>
    <trkpt lat="43.5177652" lon="-80.5071696"></trkpt>
    <trkpt lat="43.5176952" lon="-80.5071941"></trkpt>
    <trkpt lat="43.517624" lon="-80.5072112"></trkpt>
    <trkpt lat="43.5175524" lon="-80.5072252"></trkpt>
    <trkpt lat="43.5174806" lon="-80.5072375"></trkpt>
    <trkpt lat="43.5174087" lon="-80.5072482"></trkpt>
    <trkpt lat="43.5173367" lon="-80.5072574"></trkpt>
    <trkpt lat="43.5172646" lon="-80.5072654"></trkpt>
    <trkpt lat="43.5171924" lon="-80.507272"></trkpt>
    <trkpt lat="43.5171202" lon="-80.5072772"></trkpt>
    <trkpt lat="43.517048" lon="-80.507281"></trkpt>
    <trkpt lat="43.5169757" lon="-80.5072833"></trkpt>
    <trkpt lat="43.5169033" lon="-80.5072837"></trkpt>
    <trkpt lat="43.516831" lon="-80.5072822"></trkpt>
    <trkpt lat="43.5167588" lon="-80.5072783"></trkpt>
    <trkpt lat="43.5166866" lon="-80.5072716"></trkpt>
    <trkpt lat="43.5166147" lon="-80.5072614"></trkpt>
    <trkpt lat="43.5165432" lon="-80.5072469"></trkpt>
    <trkpt lat="43.5164726" lon="-80.5072254"></trkpt>
    <trkpt lat="43.5164038" lon="-80.5071948"></trkpt>
    <trkpt lat="43.5163402" lon="-80.507148"></trkpt>
    <trkpt lat="43.5162911" lon="-80.5070761"></trkpt>
    <trkpt lat="43.5162632" lon="-80.5069846"></trkpt>
    <trkpt lat="43.5162517" lon="-80.5068864"></trkpt>
    <trkpt lat="43.5162503" lon="-80.5067868"></trkpt>
    <trkpt lat="43.5162563" lon="-80.5066874"></trkpt>
    <trkpt lat="43.5162665" lon="-80.5065887"></trkpt>
    <trkpt lat="43.5162803" lon="-80.5064908"></trkpt>
    <trkpt lat="43.5162962" lon="-80.5063936"></trkpt>
    <trkpt lat="43.5163138" lon="-80.5062968"></trkpt>
    <trkpt lat="43.5163324" lon="-80.5062005"></trkpt>
    <trkpt lat="43.5163515" lon="-80.5061043"></trkpt>
    <trkpt lat="43.5163705" lon="-80.506008"></trkpt>
    <trkpt lat="43.5163885" lon="-80.5059115"></trkpt>
    <trkpt lat="43.5164038" lon="-80.505814"></trkpt>
    <trkpt lat="43.5164118" lon="-80.505715"></trkpt>
    <trkpt lat="43.5164039" lon="-80.5056164"></trkpt>
    <trkpt lat="43.5163544" lon="-80.5055495"></trkpt>
    <trkpt lat="43.5163512" lon="-80.5054616"></trkpt>
    <trkpt lat="43.5163827" lon="-80.5053719"></trkpt>
    <trkpt lat="43.5164185" lon="-80.5052852"></trkpt>
    <trkpt lat="43.5164562" lon="-80.5052001"></trkpt>
    <trkpt lat="43.5164951" lon="-80.505116"></trkpt>
    <trkpt lat="43.5165347" lon="-80.5050326"></trkpt>
    <trkpt lat="43.5165749" lon="-80.5049497"></trkpt>
    <trkpt lat="43.5166154" lon="-80.5048671"></trkpt>
    <trkpt lat="43.5166563" lon="-80.5047849"></trkpt>
    <trkpt lat="43.5166976" lon="-80.5047029"></trkpt>
    <trkpt lat="43.516739" lon="-80.5046212"></trkpt>
    <trkpt lat="43.5167808" lon="-80.5045398"></trkpt>
    <trkpt lat="43.5168227" lon="-80.5044585"></trkpt>
    <trkpt lat="43.5168649" lon="-80.5043775"></trkpt>
    <trkpt lat="43.5169073" lon="-80.5042967"></trkpt>
    <trkpt lat="43.51695" lon="-80.5042162"></trkpt>
    <trkpt lat="43.5169929" lon="-80.504136"></trkpt>
    <trkpt lat="43.5170364" lon="-80.5040563"></trkpt>
    <trkpt lat="43.5170776" lon="-80.5039744"></trkpt>
    <trkpt lat="43.5171135" lon="-80.5038879"></trkpt>
    <trkpt lat="43.5171449" lon="-80.5037981"></trkpt>
    <trkpt lat="43.5171791" lon="-80.5037104"></trkpt>
    <trkpt lat="43.5172415" lon="-80.5036705"></trkpt>
    <trkpt lat="43.5173111" lon="-80.5036963"></trkpt>
    <trkpt lat="43.5173754" lon="-80.5037418"></trkpt>
    <trkpt lat="43.5174362" lon="-80.5037957"></trkpt>
    <trkpt lat="43.517495" lon="-80.5038538"></trkpt>
    <trkpt lat="43.5175524" lon="-80.5039144"></trkpt>
    <trkpt lat="43.5176086" lon="-80.5039772"></trkpt>
    <trkpt lat="43.5176639" lon="-80.5040414"></trkpt>
    <trkpt lat="43.5177183" lon="-80.5041071"></trkpt>
    <trkpt lat="43.5177719" lon="-80.5041741"></trkpt>
    <trkpt lat="43.5178246" lon="-80.5042424"></trkpt>
    <trkpt lat="43.5178763" lon="-80.5043121"></trkpt>
    <trkpt lat="43.5179269" lon="-80.5043833"></trkpt>
    <trkpt lat="43.5179762" lon="-80.5044563"></trkpt>
    <trkpt lat="43.5180233" lon="-80.5045319"></trkpt>
    <trkpt lat="43.5180671" lon="-80.5046113"></trkpt>
  </trkseg></trk>
</gpx>